YAOGAN-30 07A           
1 45460U 20021A   26068.55604639  .00004701  00000+0  35264-3 0  9998
2 45460  34.9941  97.9026 0004392 231.7665 128.2648 15.02093562325567
STARLINK-34338          
1 64151U 25112F   26068.69381539  .00005411  00000+0  37896-3 0  9990
2 64151  97.6040 121.5914 0000728  93.3323 266.7987 15.05649471 43316
